{
  "norad_id": 39017,
  "name": "ZHONGXING-12",
  "history": [
    {
      "epoch": "2026-03-27T03:15:48.336768",
      "apogee_km": 35800.9165480529,
      "perigee_km": 35772.34570117166,
      "latitude_deg": -0.027569798094719187,
      "longitude_deg": 158.75370751996525,
      "semi_major_axis_km": 42164.76812461228,
      "eccentricity": 0.0003388,
      "inclination_deg": 0.0294,
      "raan_deg": 108.7021,
      "arg_perigee_deg": 250.5025,
      "mean_anomaly_deg": 321.8044,
      "mean_motion_rev_day": 1.00271656
    }
  ]
}